[{"OBJECT_NAME":"STARLINK-5711","OBJECT_ID":"2023-015Y","EPOCH":"2026-03-08T03:19:44.798016","MEAN_MOTION":15.02506612,"ECCENTRICITY":0.00015825,"INCLINATION":43.0038,"RA_OF_ASC_NODE":334.159,"ARG_OF_PERICENTER":247.6794,"MEAN_ANOMALY":112.3881,"EPHEMERIS_TYPE":0,"CLASSIFICATION_TYPE":"U","NORAD_CAT_ID":55471,"ELEMENT_SET_NO":999,"REV_AT_EPOCH":17052,"BSTAR":-0.00016880703,"MEAN_MOTION_DOT":-2.481e-5,"MEAN_MOTION_DDOT":0},{"OBJECT_NAME":"COSMOS 397 DEB","OBJECT_ID":"1971-015BB","EPOCH":"2026-03-09T15:38:06.236448","MEAN_MOTION":13.4341347,"ECCENTRICITY":0.07360995,"INCLINATION":65.5542,"RA_OF_ASC_NODE":180.304,"ARG_OF_PERICENTER":341.7952,"MEAN_ANOMALY":15.795,"EPHEMERIS_TYPE":0,"CLASSIFICATION_TYPE":"U","NORAD_CAT_ID":5272,"ELEMENT_SET_NO":999,"REV_AT_EPOCH":63264,"BSTAR":0.00050139784,"MEAN_MOTION_DOT":1.444e-5,"MEAN_MOTION_DDOT":0}]
